SatCatId,ObjectName,LaunchYear,OrbitalPeriod,LaunchMass,StatusCode,Inclination,Status,UcsData,OrbitClassEstimated,LaunchSiteCountry,Owner,UseType,Purpose,LaunchVehicleClass,TLE1,TLE2,MeanMotion,Eccentricity,OrbitClass
62228,STARLINK-11476 [DTC],2024,91.73,-1.0,+,53.16,Active,0,LEO,USA,USA,Unknown,Unknown,Unknown,1 62228U 24231L   25175.62310037  .00063923  00000+0  52851-3 0  9990,2 62228  53.1574 293.1122 0000843  97.9490 262.1624 15.69705942 32848,15.69705942,8.43e-05,LEO
62229,STARLINK-11485 [DTC],2024,91.73,-1.0,+,53.16,Active,0,LEO,USA,USA,Unknown,Unknown,Unknown,1 62229U 24231M   25175.51536961  .00191198  00000+0  15425-2 0  9996,2 62229  53.1573 293.8679 0000355 128.6839 231.4210 15.69778521 32606,15.69778521,3.55e-05,LEO
62230,STARLINK-11481 [DTC],2024,91.73,-1.0,+,53.16,Active,0,LEO,USA,USA,Unknown,Unknown,Unknown,1 62230U 24231N   25175.61828253  .00111613  00000+0  91252-3 0  9994,2 62230  53.1574 293.8121 0000701  88.2604 271.8494 15.69743021 32819,15.69743021,7.01e-05,LEO
62231,STARLINK-32650,2024,94.11,-1.0,+,53.16,Active,0,LEO,USA,USA,Unknown,Unknown,Unknown,1 62231U 24231P   25174.76765822  .00012972  00000+0  44909-3 0  9997,2 62231  53.1595 342.4822 0002794  83.8519 276.2800 15.30218142 32125,15.30218142,0.0002794,LEO
62232,STARLINK-32636,2024,94.1,-1.0,+,53.16,Active,0,LEO,USA,USA,Unknown,Unknown,Unknown,1 62232U 24231Q   25174.85819511  .00012690  00000+0  44025-3 0  9999,2 62232  53.1603 341.6302 0000806 105.2519 254.8571 15.30169772 32087,15.30169772,8.06e-05,LEO
62233,STARLINK-32643,2024,93.53,-1.0,+,53.16,Active,0,LEO,USA,USA,Unknown,Unknown,Unknown,1 62233U 24231R   25175.53107872  .00023421  00000+0  59308-3 0  9990,2 62233  53.1576 333.7469 0000465  71.2084 288.8971 15.39651864 32306,15.39651864,4.65e-05,LEO
62234,STARLINK-32652,2024,94.11,-1.0,+,53.16,Active,0,LEO,USA,USA,Unknown,Unknown,Unknown,1 62234U 24231S   25175.46923568  .00011516  00000+0  40024-3 0  9998,2 62234  53.1589 339.0435 0001983  96.6039 263.5188 15.30208190 32222,15.3020819,0.0001983,LEO
62235,STARLINK-32631,2024,93.53,-1.0,+,53.16,Active,0,LEO,USA,USA,Unknown,Unknown,Unknown,1 62235U 24231T   25174.17682198  .00040741  00000+0  10220-2 0  9993,2 62235  53.1595 340.2284 0001839 259.9607 100.1190 15.39651580 32099,15.3965158,0.0001839,LEO
62236,STARLINK-32641,2024,93.53,-1.0,+,53.16,Active,0,LEO,USA,USA,Unknown,Unknown,Unknown,1 62236U 24231U   25174.85838671  .00034131  00000+0  85923-3 0  9997,2 62236  53.1578 336.6622 0001074  81.8256 278.2871 15.39627087 32176,15.39627087,0.0001074,LEO
62238,QIANFAN-37,2024,106.59,-1.0,+,89.0,Active,0,LEO,PRC,China,Unknown,Unknown,Unknown,1 62238U 24232B   25175.60592154  .00000111  00000+0  15302-3 0  9992,2 62238  88.9956  58.6608 0016442 342.7383  17.3207 13.50944332 76061,13.50944332,0.0016442,LEO
62239,QIANFAN-38,2024,106.59,-1.0,+,89.0,Active,0,LEO,PRC,China,Unknown,Unknown,Unknown,1 62239U 24232C   25175.55656534  .00000124  00000+0  17367-3 0  9997,2 62239  88.9962  58.5698 0014145 338.3703  21.6849 13.50948476 76111,13.50948476,0.0014145,LEO
62240,QIANFAN-39,2024,101.04,-1.0,+,89.0,Active,0,LEO,PRC,China,Unknown,Unknown,Unknown,1 62240U 24232D   25175.61054342  .00000347  00000+0  14161-3 0  9991,2 62240  88.9956  56.9345 0013880 282.5361  77.4279 14.25211769 77019,14.25211769,0.001388,LEO
62241,QIANFAN-40,2024,106.59,-1.0,+,89.0,Active,0,LEO,PRC,China,Unknown,Unknown,Unknown,1 62241U 24232E   25175.36741142  .00000119  00000+0  16577-3 0  9995,2 62241  88.9989  58.1256 0013439 347.9571  12.1257 13.50931510 76459,13.5093151,0.0013439,LEO
62242,QIANFAN-41,2024,106.59,-1.0,+,89.0,Active,0,LEO,PRC,China,Unknown,Unknown,Unknown,1 62242U 24232F   25175.59774750  .00000111  00000+0  15316-3 0  9994,2 62242  88.9960  58.5208 0013417 334.5168  25.5320 13.50945669 76145,13.50945669,0.0013417,LEO
62243,QIANFAN-42,2024,101.1,-1.0,+,89.0,Active,0,LEO,PRC,China,Unknown,Unknown,Unknown,1 62243U 24232G   25175.50090028  .00000316  00000+0  13051-3 0  9996,2 62243  88.9954  56.9699 0012833 289.0812  70.8991 14.24316945 76997,14.24316945,0.0012833,LEO
62244,QIANFAN-43,2024,106.59,-1.0,+,89.0,Active,0,LEO,PRC,China,Unknown,Unknown,Unknown,1 62244U 24232H   25175.51943507  .00000107  00000+0  14766-3 0  9999,2 62244  88.9964  58.5865 0015113 339.2726  20.7810 13.50947383 44744,13.50947383,0.0015113,LEO
62245,QIANFAN-44,2024,106.59,-1.0,+,89.0,Active,0,LEO,PRC,China,Unknown,Unknown,Unknown,1 62245U 24232J   25175.50710216  .00000113  00000+0  15719-3 0  9994,2 62245  88.9962  58.4012 0013237 337.2986  22.7578 13.50957021 76217,13.50957021,0.0013237,LEO
62246,QIANFAN-45,2024,106.59,-1.0,+,89.0,Active,0,LEO,PRC,China,Unknown,Unknown,Unknown,1 62246U 24232K   25175.62246240  .00000112  00000+0  15590-3 0  9995,2 62246  88.9966  58.5300 0013861 336.2391  23.8118 13.50941552 76152,13.50941552,0.0013861,LEO
62247,QIANFAN-46,2024,106.59,-1.0,+,89.0,Active,0,LEO,PRC,China,Unknown,Unknown,Unknown,1 62247U 24232L   25175.49894020  .00000097  00000+0  13247-3 0  9995,2 62247  88.9962  58.6186 0014136 342.1534  17.9119 13.50943018 76090,13.50943018,0.0014136,LEO
62248,QIANFAN-47,2024,106.59,-1.0,+,89.0,Active,0,LEO,PRC,China,Unknown,Unknown,Unknown,1 62248U 24232M   25175.50317758  .00000102  00000+0  13929-3 0  9990,2 62248  88.9958  58.5580 0014521 341.0096  19.0512 13.50954989 76125,13.50954989,0.0014521,LEO
62249,QIANFAN-48,2024,106.59,-1.0,+,89.0,Active,0,LEO,PRC,China,Unknown,Unknown,Unknown,1 62249U 24232N   25175.61417640  .00000111  00000+0  15288-3 0  9994,2 62249  88.9962  58.5418 0016868 342.2896  17.7665 13.50948291 76143,13.50948291,0.0016868,LEO
62250,QIANFAN-49,2024,106.59,-1.0,+,89.0,Active,0,LEO,PRC,China,Unknown,Unknown,Unknown,1 62250U 24232P   25175.60181507  .00000103  00000+0  14187-3 0  9993,2 62250  88.9961  58.5570 0013796 338.4235  21.6333 13.50948497 44738,13.50948497,0.0013796,LEO
62251,QIANFAN-50,2024,106.59,-1.0,+,89.0,Active,0,LEO,PRC,China,Unknown,Unknown,Unknown,1 62251U 24232Q   25175.55248858  .00000114  00000+0  15787-3 0  9990,2 62251  88.9967  58.5607 0015474 338.9065  21.1446 13.50949252 44759,13.50949252,0.0015474,LEO
62252,QIANFAN-51,2024,106.59,-1.0,+,89.0,Active,0,LEO,PRC,China,Unknown,Unknown,Unknown,1 62252U 24232R   25175.61016242  .00000106  00000+0  14504-3 0  9995,2 62252  88.9960  58.5594 0013107 343.9033  16.1700 13.50945904 44757,13.50945904,0.0013107,LEO
62253,QIANFAN-52,2024,106.59,-1.0,+,89.0,Active,0,LEO,PRC,China,Unknown,Unknown,Unknown,1 62253U 24232S   25175.56485988  .00000111  00000+0  15333-3 0  9994,2 62253  88.9957  58.4442 0014817 334.9453  25.0977 13.50943645 44834,13.50943645,0.0014817,LEO
62254,QIANFAN-53,2024,106.59,-1.0,+,89.0,Active,0,LEO,PRC,China,Unknown,Unknown,Unknown,1 62254U 24232T   25175.54420997  .00000108  00000+0  14961-3 0  9994,2 62254  88.9964  58.5379 0013746 336.7694  23.2835 13.50948423 44797,13.50948423,0.0013746,LEO
62255,QIANFAN-54,2024,106.59,-1.0,+,89.0,Active,0,LEO,PRC,China,Unknown,Unknown,Unknown,1 62255U 24232U   25175.51127323  .00000113  00000+0  15585-3 0  9998,2 62255  88.9955  58.2347 0003520  43.2454 316.8973 13.50955657 76294,13.50955657,0.000352,LEO
62256,PROBA-3 CSC,2024,1179.65,-1.0,+,59.36,Active,0,MEO,India,ESA,Unknown,Unknown,Unknown,1 62256U 24233A   25166.39186944 -.00000132  00000+0 -23629-2 0  9990,2 62256  59.3570 129.0163 8069002 194.5047 106.4160  1.22069797  2349,1.22069797,0.8069002,MEO
62259,SXM-9,2024,1436.12,-1.0,+,0.01,Active,0,GSO,USA,USA,Unknown,Unknown,Unknown,1 62259U 24234A   25171.62849184 -.00000194  00000+0  00000+0 0  9990,2 62259   0.0120 329.9414 0005173 354.0710  86.1680  1.00269955  2319,1.00269955,0.0005173,GEO
62261,SENTINEL-1C,2024,98.68,-1.0,+,98.18,Active,0,LEO,French Guiana,ESA,Unknown,Unknown,Unknown,1 62261U 24235A   25175.52684081  .00000137  00000+0  38878-4 0  9995,2 62261  98.1827 182.9588 0001380  89.3651 270.7707 14.59197609 29258,14.59197609,0.000138,LEO
62262,STARLINK-32632,2024,94.11,-1.0,+,53.16,Active,0,LEO,USA,USA,Unknown,Unknown,Unknown,1 62262U 24231V   25175.47873281  .00013120  00000+0  45426-3 0  9990,2 62262  53.1536 339.0985 0000435  33.7107 326.3922 15.30203173 32190,15.30203173,4.35e-05,LEO
62267,STARLINK-11496 [DTC],2024,91.67,-1.0,+,43.0,Active,0,LEO,USA,USA,Unknown,Unknown,Unknown,1 62267U 24237A   25175.06620833  .00194577  00000+0  14797-2 0  9991,2 62267  42.9989 175.8560 0001996 255.7174 104.3472 15.70919210 32375,15.7091921,0.0001996,LEO
62268,STARLINK-11501 [DTC],2024,91.67,-1.0,+,43.0,Active,0,LEO,USA,USA,Unknown,Unknown,Unknown,1 62268U 24237B   25175.35229067  .00114003  00000+0  87881-3 0  9999,2 62268  43.0016 173.6828 0002261 269.4538  90.6071 15.70865911 32374,15.70865911,0.0002261,LEO
62269,STARLINK-11491 [DTC],2024,91.67,-1.0,+,43.0,Active,0,LEO,USA,USA,Unknown,Unknown,Unknown,1 62269U 24237C   25175.34698393  .00126232  00000+0  97138-3 0  9994,2 62269  42.9990 173.6406 0001359 268.7685  91.3027 15.70864587 32421,15.70864587,0.0001359,LEO
62270,STARLINK-11479 [DTC],2024,91.67,-1.0,+,43.0,Active,0,LEO,USA,USA,Unknown,Unknown,Unknown,1 62270U 24237D   25175.29932747  .00117264  00000+0  90396-3 0  9998,2 62270  43.0004 174.1476 0002760 284.6013  75.4549 15.70852326 32412,15.70852326,0.000276,LEO
62271,STARLINK-11489 [DTC],2024,91.67,-1.0,+,43.0,Active,0,LEO,USA,USA,Unknown,Unknown,Unknown,1 62271U 24237E   25175.27290950  .00111523  00000+0  86033-3 0  9995,2 62271  42.9985 174.8344 0000965 271.6447  88.4310 15.70859012 32400,15.70859012,9.65e-05,LEO
62272,STARLINK-11494 [DTC],2024,91.67,-1.0,+,43.0,Active,0,LEO,USA,USA,Unknown,Unknown,Unknown,1 62272U 24237F   25175.37883868  .00110427  00000+0  85202-3 0  9992,2 62272  42.9998 173.8966 0002007 276.0317  84.0322 15.70857962 32371,15.70857962,0.0002007,LEO
62273,STARLINK-11333 [DTC],2024,91.67,-1.0,+,43.0,Active,0,LEO,USA,USA,Unknown,Unknown,Unknown,1 62273U 24237G   25175.07154631  .00138083  00000+0  10613-2 0  9990,2 62273  42.9991 175.8974 0002394 269.6513  90.4080 15.70850281 32370,15.70850281,0.0002394,LEO
